start=new Date('2022-04-21T00:00:00.000Z').valueOf();
sats=[{"MEAN_MOTION":"15.06394618","OBJECT_TYPE":"PAYLOAD","LAUNCH_DATE":"2020-06-04","CENTER_NAME":"EARTH","TLE_LINE1":"1 45712U 20035BH  22110.78327107 -.00002448  00000-0 -14555-3 0  9993","DECAY_DATE":null,"REF_FRAME":"TEME","APOAPSIS":"548.249","MEAN_MOTION_DDOT":"0.0000000000000","TIME_SYSTEM":"UTC","EPOCH":"2022-04-20T18:47:54.620448","ELEMENT_SET_NO":"999","COUNTRY_CODE":"US","PERIAPSIS":"546.211","CLASSIFICATION_TYPE":"U","TLE_LINE2":"2 45712  53.0547 286.3461 0001471  76.2132 283.9020 15.06394618105293","OBJECT_NAME":"STARLINK-1434","MEAN_ELEMENT_THEORY":"SGP4","MEAN_ANOMALY":"283.9020","RA_OF_ASC_NODE":"286.3461","INCLINATION":"53.0547","REV_AT_EPOCH":"10529","ARG_OF_PERICENTER":"76.2132","GP_ID":"201711772","SEMIMAJOR_AXIS":"6925.365","OBJECT_ID":"2020-035BH","MEAN_MOTION_DOT":"-0.00002448","SITE":"AFETR","RCS_SIZE":"LARGE","BSTAR":"-0.00014555000000","ECCENTRICITY":"0.00014710","FILE":"3409979","PERIOD":"95.592","NORAD_CAT_ID":"45712","EPHEMERIS_TYPE":"0"},{"MEAN_MOTION":"15.06409278","LAUNCH_DATE":"2020-06-04","CENTER_NAME":"EARTH","OBJECT_TYPE":"PAYLOAD","TLE_LINE1":"1 45713U 20035BJ  22110.80354078  .00001615  00000-0  12726-3 0  9995","DECAY_DATE":null,"REF_FRAME":"TEME","APOAPSIS":"548.374","MEAN_MOTION_DDOT":"0.0000000000000","EPOCH":"2022-04-20T19:17:05.923392","TIME_SYSTEM":"UTC","ELEMENT_SET_NO":"999","TLE_LINE2":"2 45713  53.0537 306.2402 0001717  70.8495 289.2680 15.06409278105004","OBJECT_NAME":"STARLINK-1436","COUNTRY_CODE":"US","CLASSIFICATION_TYPE":"U","PERIAPSIS":"545.996","MEAN_ELEMENT_THEORY":"SGP4","MEAN_ANOMALY":"289.2680","RA_OF_ASC_NODE":"306.2402","INCLINATION":"53.0537","REV_AT_EPOCH":"10500","ARG_OF_PERICENTER":"70.8495","GP_ID":"201712023","SITE":"AFETR","RCS_SIZE":"LARGE","MEAN_MOTION_DOT":"0.00001615","SEMIMAJOR_AXIS":"6925.320","OBJECT_ID":"2020-035BJ","BSTAR":"0.00012726000000","ECCENTRICITY":"0.00017170","NORAD_CAT_ID":"45713","PERIOD":"95.592","FILE":"3409979","EPHEMERIS_TYPE":"0"},{"LAUNCH_DATE":"2020-06-04","CENTER_NAME":"EARTH","OBJECT_TYPE":"PAYLOAD","MEAN_MOTION":"15.06410693","DECAY_DATE":null,"APOAPSIS":"548.341","REF_FRAME":"TEME","TLE_LINE1":"1 45714U 20035BK  22110.52894398  .00000698  00000-0  65749-4 0  9993","TIME_SYSTEM":"UTC","EPOCH":"2022-04-20T12:41:40.759872","ELEMENT_SET_NO":"999","MEAN_MOTION_DDOT":"0.0000000000000","MEAN_ELEMENT_THEORY":"SGP4","OBJECT_NAME":"STARLINK-1437","TLE_LINE2":"2 45714  53.0538 287.4803 0001676  48.5878 311.5255 15.06410693105259","COUNTRY_CODE":"US","CLASSIFICATION_TYPE":"U","PERIAPSIS":"546.020","REV_AT_EPOCH":"10525","ARG_OF_PERICENTER":"48.5878","MEAN_ANOMALY":"311.5255","RA_OF_ASC_NODE":"287.4803","INCLINATION":"53.0538","SITE":"AFETR","MEAN_MOTION_DOT":"0.00000698","RCS_SIZE":"LARGE","SEMIMAJOR_AXIS":"6925.316","OBJECT_ID":"2020-035BK","GP_ID":"201679881","ECCENTRICITY":"0.00016760","BSTAR":"0.00006574900000","EPHEMERIS_TYPE":"0","NORAD_CAT_ID":"45714","FILE":"3409639","PERIOD":"95.591"},{"LAUNCH_DATE":"2020-06-13","CENTER_NAME":"EARTH","OBJECT_TYPE":"PAYLOAD","MEAN_MOTION":"15.06406836","DECAY_DATE":null,"REF_FRAME":"TEME","APOAPSIS":"548.601","TLE_LINE1":"1 45730U 20038A   22110.73903336  .00003637  00000-0  26292-3 0  9995","TIME_SYSTEM":"UTC","EPOCH":"2022-04-20T17:44:12.482304","ELEMENT_SET_NO":"999","MEAN_MOTION_DDOT":"0.0000000000000","MEAN_ELEMENT_THEORY":"SGP4","TLE_LINE2":"2 45730  53.0543 126.5350 0002033  50.2280 309.8888 15.06406836102330","OBJECT_NAME":"STARLINK-1461","COUNTRY_CODE":"US","CLASSIFICATION_TYPE":"U","PERIAPSIS":"545.785","REV_AT_EPOCH":"10233","ARG_OF_PERICENTER":"50.2280","MEAN_ANOMALY":"309.8888","RA_OF_ASC_NODE":"126.5350","INCLINATION":"53.0543","MEAN_MOTION_DOT":"0.00003637","SITE":"AFETR","RCS_SIZE":"LARGE","OBJECT_ID":"2020-038A","SEMIMAJOR_AXIS":"6925.328","GP_ID":"201711022","ECCENTRICITY":"0.00020330","BSTAR":"0.00026292000000","EPHEMERIS_TYPE":"0","NORAD_CAT_ID":"45730","FILE":"3409979","PERIOD":"95.592"},{"EPOCH":"2022-04-20T18:05:27.370464","TIME_SYSTEM":"UTC","ELEMENT_SET_NO":"999","MEAN_MOTION_DDOT":"0.0000000000000","MEAN_ELEMENT_THEORY":"SGP4","TLE_LINE2":"2 45731  53.0524 126.4698 0001675  60.9929 299.1228 15.06417363102328","OBJECT_NAME":"STARLINK-1465","COUNTRY_CODE":"US","CLASSIFICATION_TYPE":"U","PERIAPSIS":"546.000","LAUNCH_DATE":"2020-06-13","CENTER_NAME":"EARTH","OBJECT_TYPE":"PAYLOAD","MEAN_MOTION":"15.06417363","DECAY_DATE":null,"REF_FRAME":"TEME","APOAPSIS":"548.320","TLE_LINE1":"1 45731U 20038B   22110.75378901  .00006178  00000-0  43311-3 0  9996","ECCENTRICITY":"0.00016750","BSTAR":"0.00043311000000","EPHEMERIS_TYPE":"0","NORAD_CAT_ID":"45731","PERIOD":"95.591","FILE":"3409979","REV_AT_EPOCH":"10232","ARG_OF_PERICENTER":"60.9929","RA_OF_ASC_NODE":"126.4698","MEAN_ANOMALY":"299.1228","INCLINATION":"53.0524","SITE":"AFETR","MEAN_MOTION_DOT":"0.00006178","RCS_SIZE":"LARGE","SEMIMAJOR_AXIS":"6925.295","OBJECT_ID":"2020-038B","GP_ID":"201711773"},{"NORAD_CAT_ID":"45732","FILE":"3409979","PERIOD":"95.593","EPHEMERIS_TYPE":"0","BSTAR":"0.00007859900000","ECCENTRICITY":"0.00018440","GP_ID":"201712024","SITE":"AFETR","RCS_SIZE":"LARGE","MEAN_MOTION_DOT":"0.00000889","OBJECT_ID":"2020-038C","SEMIMAJOR_AXIS":"6925.372","MEAN_ANOMALY":"315.3325","RA_OF_ASC_NODE":"126.5142","INCLINATION":"53.0539","REV_AT_EPOCH":"10232","ARG_OF_PERICENTER":"44.7812","TLE_LINE2":"2 45732  53.0539 126.5142 0001844  44.7812 315.3325 15.06392255102320","OBJECT_NAME":"STARLINK-1466","COUNTRY_CODE":"US","CLASSIFICATION_TYPE":"U","PERIAPSIS":"545.960","MEAN_ELEMENT_THEORY":"SGP4","MEAN_MOTION_DDOT":"0.0000000000000","TIME_SYSTEM":"UTC","EPOCH":"2022-04-20T17:49:31.370880","ELEMENT_SET_NO":"999","TLE_LINE1":"1 45732U 20038C   22110.74272420  .00000889  00000-0  78599-4 0  9995","DECAY_DATE":null,"REF_FRAME":"TEME","APOAPSIS":"548.514","MEAN_MOTION":"15.06392255","LAUNCH_DATE":"2020-06-13","CENTER_NAME":"EARTH","OBJECT_TYPE":"PAYLOAD"},{"MEAN_ELEMENT_THEORY":"SGP4","COUNTRY_CODE":"US","PERIAPSIS":"545.908","CLASSIFICATION_TYPE":"U","TLE_LINE2":"2 45733  53.0525 126.4904 0001846  52.9144 307.2014 15.06408994102325","OBJECT_NAME":"STARLINK-1467","ELEMENT_SET_NO":"999","TIME_SYSTEM":"UTC","EPOCH":"2022-04-20T18:00:07.814880","MEAN_MOTION_DDOT":"0.0000000000000","REF_FRAME":"TEME","APOAPSIS":"548.464","DECAY_DATE":null,"TLE_LINE1":"1 45733U 20038D   22110.75009045  .00001077  00000-0  91164-4 0  9991","OBJECT_TYPE":"PAYLOAD","CENTER_NAME":"EARTH","LAUNCH_DATE":"2020-06-13","MEAN_MOTION":"15.06408994","EPHEMERIS_TYPE":"0","PERIOD":"95.592","FILE":"3409979","NORAD_CAT_ID":"45733","ECCENTRICITY":"0.00018460","BSTAR":"0.00009116400000","SEMIMAJOR_AXIS":"6925.321","OBJECT_ID":"2020-038D","RCS_SIZE":"LARGE","SITE":"AFETR","MEAN_MOTION_DOT":"0.00001077","GP_ID":"201712775","ARG_OF_PERICENTER":"52.9144","REV_AT_EPOCH":"10232","INCLINATION":"53.0525","MEAN_ANOMALY":"307.2014","RA_OF_ASC_NODE":"126.4904"},{"NORAD_CAT_ID":"45734","FILE":"3409979","PERIOD":"95.592","EPHEMERIS_TYPE":"0","BSTAR":"-0.00007492600000","ECCENTRICITY":"0.00022260","GP_ID":"201711523","SITE":"AFETR","MEAN_MOTION_DOT":"-0.00001398","RCS_SIZE":"LARGE","OBJECT_ID":"2020-038E","SEMIMAJOR_AXIS":"6925.353","MEAN_ANOMALY":"311.9885","RA_OF_ASC_NODE":"126.5742","INCLINATION":"53.0559","REV_AT_EPOCH":"10232","ARG_OF_PERICENTER":"48.1294","TLE_LINE2":"2 45734  53.0559 126.5742 0002226  48.1294 311.9885 15.06398512102322","OBJECT_NAME":"STARLINK-1468","PERIAPSIS":"545.677","COUNTRY_CODE":"US","CLASSIFICATION_TYPE":"U","MEAN_ELEMENT_THEORY":"SGP4","MEAN_MOTION_DDOT":"0.0000000000000","EPOCH":"2022-04-20T17:33:35.677152","TIME_SYSTEM":"UTC","ELEMENT_SET_NO":"999","TLE_LINE1":"1 45734U 20038E   22110.73166293 -.00001398  00000-0 -74926-4 0  9994","DECAY_DATE":null,"REF_FRAME":"TEME","APOAPSIS":"548.760","MEAN_MOTION":"15.06398512","LAUNCH_DATE":"2020-06-13","CENTER_NAME":"EARTH","OBJECT_TYPE":"PAYLOAD"},{"MEAN_MOTION_DDOT":"0.0000000000000","EPOCH":"2022-04-20T18:26:40.282656","TIME_SYSTEM":"UTC","ELEMENT_SET_NO":"999","PERIAPSIS":"545.981","COUNTRY_CODE":"US","CLASSIFICATION_TYPE":"U","TLE_LINE2":"2 45735  53.0536 126.4081 0001717  55.9103 304.2049 15.06414037102320","OBJECT_NAME":"STARLINK-1471","MEAN_ELEMENT_THEORY":"SGP4","MEAN_MOTION":"15.06414037","OBJECT_TYPE":"PAYLOAD","LAUNCH_DATE":"2020-06-13","CENTER_NAME":"EARTH","TLE_LINE1":"1 45735U 20038F   22110.76852179  .00002391  00000-0  17931-3 0  9997","DECAY_DATE":null,"REF_FRAME":"TEME","APOAPSIS":"548.360","BSTAR":"0.00017931000000","ECCENTRICITY":"0.00017170","PERIOD":"95.591","FILE":"3409979","NORAD_CAT_ID":"45735","EPHEMERIS_TYPE":"0","MEAN_ANOMALY":"304.2049","RA_OF_ASC_NODE":"126.4081","INCLINATION":"53.0536","REV_AT_EPOCH":"10232","ARG_OF_PERICENTER":"55.9103","GP_ID":"201711273","OBJECT_ID":"2020-038F","SEMIMAJOR_AXIS":"6925.306","RCS_SIZE":"LARGE","SITE":"AFETR","MEAN_MOTION_DOT":"0.00002391"},{"CENTER_NAME":"EARTH","LAUNCH_DATE":"2020-06-13","OBJECT_TYPE":"PAYLOAD","MEAN_MOTION":"15.36053519","REF_FRAME":"TEME","APOAPSIS":"460.147","DECAY_DATE":null,"TLE_LINE1":"1 45736U 20038G   22110.48271704  .00011804  00000-0  34159-3 0  9996","ELEMENT_SET_NO":"999","EPOCH":"2022-04-20T11:35:06.752256","TIME_SYSTEM":"UTC","MEAN_MOTION_DDOT":"0.0000000000000","MEAN_ELEMENT_THEORY":"SGP4","OBJECT_NAME":"STARLINK-1472","TLE_LINE2":"2 45736  53.0618 111.6115 0003441  85.2342 274.9053 15.36053519102519","PERIAPSIS":"455.443","COUNTRY_CODE":"US","CLASSIFICATION_TYPE":"U","ARG_OF_PERICENTER":"85.2342","REV_AT_EPOCH":"10251","INCLINATION":"53.0618","MEAN_ANOMALY":"274.9053","RA_OF_ASC_NODE":"111.6115","SITE":"AFETR","MEAN_MOTION_DOT":"0.00011804","RCS_SIZE":"LARGE","OBJECT_ID":"2020-038G","SEMIMAJOR_AXIS":"6835.930","GP_ID":"201679131","ECCENTRICITY":"0.00034410","BSTAR":"0.00034159000000","EPHEMERIS_TYPE":"0","NORAD_CAT_ID":"45736","FILE":"3409639","PERIOD":"93.747"}];
